STARLINK-5823           
1 55786U 23028AX  25361.78530977 -.00000595  00000+0 -42102-4 0  9992
2 55786  70.0002  25.8307 0003121 267.8681  92.2121 14.98333850156252
STARLINK-5811           
1 55787U 23028AY  25361.79365981  .00000313  00000+0  34058-4 0  9992
2 55787  70.0002  25.8610 0003212 269.5279  90.5512 14.98331279156251
STARLINK-5804           
1 55788U 23028AZ  25361.38892765 -.00000519  00000+0 -35693-4 0  9999
2 55788  69.9997  26.8555 0003117 273.0850  86.9953 14.98336334156198
STARLINK-5815           
1 55789U 23028BA  25361.49739751  .00001222  00000+0  11022-3 0  9996
2 55789  69.9998  26.4307 0003290 271.4212  88.6570 14.98333385156217
STARLINK-5813           
1 55790U 23028BB  25361.50171451  .00002715  00000+0  23514-3 0  9994
2 55790  69.9996  26.4467 0003503 271.5415  88.5343 14.98352382156212
STARLINK-5807           
1 55791U 23028BC  25361.51408712 -.00007624  00000+0 -63119-3 0  9990
2 55791  70.0000  26.4902 0002640 262.2584  97.8275 14.98369579156214
STARLINK-5856           
1 55914U 23037A   25361.79064748  .00000604  00000+0  58402-4 0  9993
2 55914  70.0002 125.8921 0003134 271.6262  88.4538 14.98331259153404
STARLINK-5859           
1 55915U 23037B   25361.70546866  .00037176  00000+0  28844-2 0  9990
2 55915  69.9992 125.9955 0013963 275.0232  84.9334 15.01116084153399
STARLINK-5796           
1 55916U 23037C   25361.71969137  .00006172  00000+0  52420-3 0  9992
2 55916  70.0003 126.0433 0003557 272.1053  87.9698 14.98361949152703
STARLINK-5867           
1 55918U 23037E   25361.78229660  .00001034  00000+0  94390-4 0  9996
2 55918  69.9999 125.8614 0003020 269.2914  90.7899 14.98337072152718
STARLINK-5871           
1 55919U 23037F   25361.33335647  .00031837  00000+0  26637-2 0  9992
2 55919  70.0011 126.9430 0003670 267.1311 236.0488 14.98331459  5779
STARLINK-5862           
1 55920U 23037G   25361.71113670  .00002860  00000+0  24734-3 0  9997
2 55920  70.0005 106.1381 0003229 276.6067  83.4725 14.98335674153193
STARLINK-5861           
1 55921U 23037H   25361.75725236  .00001211  00000+0  10930-3 0  9991
2 55921  70.0002 125.7734 0002743 270.0978  89.9866 14.98331983152712
STARLINK-5863           
1 55922U 23037J   25361.76142672  .00000098  00000+0  15965-4 0  9996
2 55922  70.0001 125.7875 0003094 269.4310  90.6495 14.98333568152718
STARLINK-5854           
1 55923U 23037K   25361.76559868  .00000496  00000+0  49370-4 0  9995
2 55923  70.0000 125.8019 0003513 277.3674  82.7086 14.98333203152710
STARLINK-5849           
1 55924U 23037L   25361.70696523  .00000924  00000+0  85227-4 0  9997
2 55924  70.0009 106.1214 0003347 268.3308  91.7468 14.98331904153191
STARLINK-5922           
1 55925U 23037M   25361.75308984 -.00001030  00000+0 -78550-4 0  9996
2 55925  70.0015 125.7574 0002479 265.7181  94.3695 14.98339807152718
STARLINK-5921           
1 55926U 23037N   25361.69861571  .00000353  00000+0  37359-4 0  9993
2 55926  70.0007 106.0937 0003472 269.0794  90.9968 14.98334929153194
STARLINK-5919           
1 55927U 23037P   25361.83336806  .00021528  00000+0  18065-2 0  9996
2 55927  70.0009 125.5070 0002945 276.5628 200.6345 14.98330500  5651
STARLINK-5930           
1 55928U 23037Q   25361.67379338  .00001121  00000+0  10177-3 0  9990
2 55928  70.0003 125.8822 0003143 271.0486  89.0313 14.98328895152704
STARLINK-5896           
1 55930U 23037S   25361.73615204  .00001331  00000+0  11926-3 0  9991
2 55930  70.0007 105.8256 0003390 267.6887  92.3884 14.98340318153200
STARLINK-5897           
1 55931U 23037T   25361.73638042  .00000471  00000+0  47273-4 0  9996
2 55931  70.0003 125.6995 0003214 269.9070  90.1721 14.98334793152712
STARLINK-5848           
1 55932U 23037U   25361.62743666  .00000704  00000+0  66788-4 0  9995
2 55932  70.0003  85.9619 0003236 267.0849  92.9940 14.98341085153683
STARLINK-5852           
1 55933U 23037V   25361.62767957  .00001468  00000+0  13076-3 0  9994
2 55933  70.0006 106.2495 0003471 267.2649  92.8112 14.98335596153182
STARLINK-5927           
1 55934U 23037W   25360.73460470  .00035685  00000+0  29605-2 0  9998
2 55934  70.0002 108.3452 0004674 266.8815  93.1810 14.98621920153055
STARLINK-5920           
1 55935U 23037X   25361.69026284 -.00000483  00000+0 -32676-4 0  9990
2 55935  70.0004 106.0654 0003164 258.6115 101.4688 14.98339048153190
STARLINK-5882           
1 55936U 23037Y   25361.69836258  .00002388  00000+0  20785-3 0  9992
2 55936  69.9997  85.8073 0003134 269.2502  90.8298 14.98327799153696
STARLINK-5913           
1 55937U 23037Z   25361.55257993 -.00001074  00000+0 -82219-4 0  9995
2 55937  69.9990 106.3857 0003753 275.6286  84.4445 14.98337059153172
STARLINK-5909           
1 55938U 23037AA  25361.61515934  .00000348  00000+0  36974-4 0  9993
2 55938  70.0005 106.2022 0003101 265.1841  94.8964 14.98329615153185
STARLINK-5918           
1 55939U 23037AB  25361.74033339  .00000205  00000+0  24935-4 0  9998
2 55939  70.0009 105.8361 0002534 290.4135  69.6752 14.98330974153205
STARLINK-5864           
1 55940U 23037AC  25361.67774544  .00000117  00000+0  17622-4 0  9999
2 55940  70.0009 106.0194 0003013 270.4296  89.6518 14.98333853153192
STARLINK-5914           
1 55941U 23037AD  25361.63603465  .00000139  00000+0  19445-4 0  9998
2 55941  70.0006 106.2761 0003353 272.5850  87.4925 14.98334359153187
STARLINK-5917           
1 55942U 23037AE  25361.71946988  .00000736  00000+0  69443-4 0  9994
2 55942  70.0001 105.7624 0003334 268.5052  91.5725 14.98329861153202
STARLINK-5932           
1 55943U 23037AF  25361.72780696  .00000965  00000+0  88692-4 0  9999
2 55943  70.0005 105.7836 0003103 268.9991  91.0813 14.98332361153204
STARLINK-5926           
1 55944U 23037AG  25361.72363422  .00000534  00000+0  52533-4 0  9991
2 55944  70.0007 105.7773 0002948 272.6943  87.3878 14.98333684153200
STARLINK-5925           
1 55945U 23037AH  25360.59724771 -.00000956  00000+0 -72367-4 0  9991
2 55945  69.9998 108.6678 0003394 269.1783  90.8988 14.98318192153031
STARLINK-5857           
1 55946U 23037AJ  25361.73200117  .00000222  00000+0  26428-4 0  9993
2 55946  69.9988 105.8051 0003698 272.1078  87.9657 14.98338224153198
STARLINK-5851           
1 55947U 23037AK  25361.58193769  .00002846  00000+0  24626-3 0  9992
2 55947  70.0009 106.0859 0002967 270.2556  89.8263 14.98327755153183
STARLINK-5900           
1 55948U 23037AL  25361.54400009  .00000649  00000+0  62200-4 0  9997
2 55948  70.0005  86.4765 0003360 269.5972  90.4802 14.98332523153667
STARLINK-5899           
1 55949U 23037AM  25361.68586881 -.00002276  00000+0 -18291-3 0  9996
2 55949  70.0008  86.1684 0002924 275.8020  84.2806 14.98348668153681
STARLINK-5911           
1 55950U 23037AN  25361.67334867  .00000512  00000+0  50694-4 0  9995
2 55950  70.0013  86.1248 0002870 274.0737  86.0094 14.98332034153680
STARLINK-5908           
1 55951U 23037AP  25361.58177027 -.00000522  00000+0 -35951-4 0  9991
2 55951  70.0007 106.0851 0003186 268.6951  91.3844 14.98333773153182
STARLINK-5893           
1 55952U 23037AQ  25361.67768118 -.00001063  00000+0 -81283-4 0  9999
2 55952  70.0004  86.1413 0003572 269.5577  90.5173 14.98342147153681
STARLINK-5892           
1 55954U 23037AS  25361.58154934 -.00002540  00000+0 -20516-3 0  9998
2 55954  70.0002  86.2044 0003170 267.3579  92.7217 14.98323262153673
STARLINK-5878           
1 55955U 23037AT  25361.59823859  .00001259  00000+0  11328-3 0  9994
2 55955  70.0005  86.2632 0003445 269.8888  90.1877 14.98333922153673
STARLINK-5883           
1 55956U 23037AU  25361.63995687  .00000983  00000+0  90195-4 0  9992
2 55956  70.0006  86.0074 0003184 269.9194  90.1600 14.98333457153682
STARLINK-5884           
1 55957U 23037AV  25361.40163652  .00085043  00000+0  69380-2 0  9997
2 55957  70.0038  86.7827 0005061 255.6766 104.3832 14.98938623153641
STARLINK-5928           
1 55958U 23037AW  25361.52729904 -.00001637  00000+0 -12940-3 0  9999
2 55958  70.0001  86.4176 0003186 269.2327  90.8467 14.98338567153662
STARLINK-5929           
1 55959U 23037AX  25361.65664975  .00000988  00000+0  90595-4 0  9999
2 55959  70.0000  86.0662 0003215 269.5353  90.5438 14.98334233153686
STARLINK-5938           
1 55960U 23037AY  25361.83336806 -.00041986  00000+0 -35298-2 0  9992
2 55960  70.0011  85.6781 0003473 271.6534 252.9378 14.98353473  5846
STARLINK-5933           
1 55961U 23037AZ  25361.51061238 -.00000269  00000+0 -14711-4 0  9990
2 55961  70.0000  86.3589 0003199 270.4436  89.6356 14.98327530153662
STARLINK-5906           
1 55962U 23037BA  25361.61493488  .00000399  00000+0  41253-4 0  9991
2 55962  70.0005  86.3169 0003458 270.6777  89.3986 14.98334755153674
STARLINK-5924           
1 55963U 23037BB  25361.65247558  .00000724  00000+0  68429-4 0  9997
2 55963  69.9999  86.0512 0003377 269.6129  90.4643 14.98334161153687
STARLINK-5895           
1 55964U 23037BC  25361.65471692  .00010820  00000+0  78335-3 0  9990
2 55964  69.9989  84.4018 0005076 314.4101  45.6645 15.04188358153729
STARLINK-5894           
1 55965U 23037BD  25361.63578101  .00000462  00000+0  46468-4 0  9996
2 55965  70.0003  85.9925 0002956 267.3883  92.6938 14.98331815153682
STARLINK-5905           
1 55986U 23042A   25360.94570860  .00000518  00000+0  53459-4 0  9992
2 55986  43.0062  91.7442 0001469 268.3832  91.6842 15.02535827152780
STARLINK-5915           
1 55987U 23042B   25361.52624941  .00000045  00000+0  18405-4 0  9995
2 55987  43.0027  88.3517 0001266 272.0116  88.0582 15.02536183152056
STARLINK-5916           
1 55988U 23042C   25361.23924787 -.00002732  00000+0 -18716-3 0  9996
2 55988  43.0041  89.6530 0001296 269.6674  90.4020 15.02549720152017
STARLINK-5947           
1 55989U 23042D   25361.26698234 -.00029199  00000+0 -21483-2 0  9995
2 55989  43.0051  89.8551 0001828 309.6109  50.4572 15.02659832152017
